{
  "type": "FeatureCollection",
  "features": [
    {
      "type": "Feature",
      "properties": {
        "norad_id": 30665,
        "name": "FENGYUN 1C DEB",
        "group": "fengyun-1c-debris",
        "lat": 61.23806895244032,
        "lon": -50.76578395463108,
        "alt_km": 867.4030127535862,
        "timestamp": "2025-12-20T14:38:02.247697+00:00",
        "meta_object_name": "FENGYUN 1C DEB",
        "meta_object_id": "1999-025APX",
        "meta_epoch": "2025-12-19T21:35:47.508288",
        "meta_mean_motion": 14.12377271,
        "meta_eccentricity": 0.0067607,
        "meta_inclination": 99.2085,
        "meta_ra_of_asc_node": 325.6951,
        "meta_arg_of_pericenter": 181.9864,
        "meta_mean_anomaly": 233.8804,
        "meta_ephemeris_type": 0,
        "meta_classification_type": "U",
        "meta_norad_cat_id": 30665,
        "meta_element_set_no": 999,
        "meta_rev_at_epoch": 96071,
        "meta_bstar": 0.0009759,
        "meta_mean_motion_dot": 1.792e-05,
        "meta_mean_motion_ddot": 0,
        "tle_line1": "1 30665U 99025APX 25353.89985542  .00001792  00000+0  97590-3 0  9994",
        "tle_line2": "2 30665  99.2085 325.6951 0067607 181.9864 233.8804 14.12377271960715"
      },
      "geometry": {
        "type": "Point",
        "coordinates": [
          -50.76578395463108,
          61.23806895244032
        ]
      }
    },
    {
      "type": "Feature",
      "properties": {
        "norad_id": 30666,
        "name": "FENGYUN 1C DEB",
        "group": "fengyun-1c-debris",
        "lat": -43.53826774481477,
        "lon": -13.534597888347697,
        "alt_km": 934.897231011737,
        "timestamp": "2025-12-20T14:38:02.247708+00:00",
        "meta_object_name": "FENGYUN 1C DEB",
        "meta_object_id": "1999-025APY",
        "meta_epoch": "2025-12-19T22:01:32.568384",
        "meta_mean_motion": 14.02560501,
        "meta_eccentricity": 0.0061371,
        "meta_inclination": 98.8224,
        "meta_ra_of_asc_node": 337.3087,
        "meta_arg_of_pericenter": 124.4057,
        "meta_mean_anomaly": 299.4725,
        "meta_ephemeris_type": 0,
        "meta_classification_type": "U",
        "meta_norad_cat_id": 30666,
        "meta_element_set_no": 999,
        "meta_rev_at_epoch": 96211,
        "meta_bstar": 0.00024493,
        "meta_mean_motion_dot": 3.41e-06,
        "meta_mean_motion_ddot": 0,
        "tle_line1": "1 30666U 99025APY 25353.91773806  .00000341  00000+0  24493-3 0  9997",
        "tle_line2": "2 30666  98.8224 337.3087 0061371 124.4057 299.4725 14.02560501962119"
      },
      "geometry": {
        "type": "Point",
        "coordinates": [
          -13.534597888347697,
          -43.53826774481477
        ]
      }
    },
    {
      "type": "Feature",
      "properties": {
        "norad_id": 30668,
        "name": "FENGYUN 1C DEB",
        "group": "fengyun-1c-debris",
        "lat": 25.688404716407373,
        "lon": -107.74874152295612,
        "alt_km": 830.5666527863314,
        "timestamp": "2025-12-20T14:38:02.247718+00:00",
        "meta_object_name": "FENGYUN 1C DEB",
        "meta_object_id": "1999-025AQA",
        "meta_epoch": "2025-12-19T16:31:33.066624",
        "meta_mean_motion": 14.12368836,
        "meta_eccentricity": 0.00796728,
        "meta_inclination": 99.1306,
        "meta_ra_of_asc_node": 66.8763,
        "meta_arg_of_pericenter": 226.7981,
        "meta_mean_anomaly": 286.7765,
        "meta_ephemeris_type": 0,
        "meta_classification_type": "U",
        "meta_norad_cat_id": 30668,
        "meta_element_set_no": 999,
        "meta_rev_at_epoch": 96153,
        "meta_bstar": 0.0012189868,
        "meta_mean_motion_dot": 2.269e-05,
        "meta_mean_motion_ddot": 0,
        "tle_line1": "1 30668U 99025AQA 25353.68857716  .00002269  00000+0  12190-2 0  9997",
        "tle_line2": "2 30668  99.1306  66.8763 0079672 226.7981 286.7765 14.12368836961532"
      },
      "geometry": {
        "type": "Point",
        "coordinates": [
          -107.74874152295612,
          25.688404716407373
        ]
      }
    },
    {
      "type": "Feature",
      "properties": {
        "norad_id": 30669,
        "name": "FENGYUN 1C DEB",
        "group": "fengyun-1c-debris",
        "lat": -59.744486494305626,
        "lon": -54.02492924055109,
        "alt_km": 961.1500480530722,
        "timestamp": "2025-12-20T14:38:02.247728+00:00",
        "meta_object_name": "FENGYUN 1C DEB",
        "meta_object_id": "1999-025AQB",
        "meta_epoch": "2025-12-19T18:31:50.763648",
        "meta_mean_motion": 14.0275023,
        "meta_eccentricity": 0.0118053,
        "meta_inclination": 98.6349,
        "meta_ra_of_asc_node": 290.0807,
        "meta_arg_of_pericenter": 156.6703,
        "meta_mean_anomaly": 234.098,
        "meta_ephemeris_type": 0,
        "meta_classification_type": "U",
        "meta_norad_cat_id": 30669,
        "meta_element_set_no": 999,
        "meta_rev_at_epoch": 95552,
        "meta_bstar": 0.001055913,
        "meta_mean_motion_dot": 1.695e-05,
        "meta_mean_motion_ddot": 0,
        "tle_line1": "1 30669U 99025AQB 25353.77211532  .00001695  00000+0  10559-2 0  9997",
        "tle_line2": "2 30669  98.6349 290.0807 0118053 156.6703 234.0980 14.02750230955523"
      },
      "geometry": {
        "type": "Point",
        "coordinates": [
          -54.02492924055109,
          -59.744486494305626
        ]
      }
    },
    {
      "type": "Feature",
      "properties": {
        "norad_id": 30670,
        "name": "FENGYUN 1C DEB",
        "group": "fengyun-1c-debris",
        "lat": -51.32948314403597,
        "lon": -152.18125507997837,
        "alt_km": 874.9643988574389,
        "timestamp": "2025-12-20T14:38:02.247738+00:00",
        "meta_object_name": "FENGYUN 1C DEB",
        "meta_object_id": "1999-025AQC",
        "meta_epoch": "2025-12-20T01:48:36.739872",
        "meta_mean_motion": 14.15820104,
        "meta_eccentricity": 0.00396674,
        "meta_inclination": 98.7097,
        "meta_ra_of_asc_node": 38.3393,
        "meta_arg_of_pericenter": 49.0993,
        "meta_mean_anomaly": 341.1421,
        "meta_ephemeris_type": 0,
        "meta_classification_type": "U",
        "meta_norad_cat_id": 30670,
        "meta_element_set_no": 999,
        "meta_rev_at_epoch": 97256,
        "meta_bstar": 7.5028517e-05,
        "meta_mean_motion_dot": 1.06e-06,
        "meta_mean_motion_ddot": 0,
        "tle_line1": "1 30670U 99025AQC 25354.07542523  .00000106  00000+0  75029-4 0  9991",
        "tle_line2": "2 30670  98.7097  38.3393 0039667  49.0993 341.1421 14.15820104972563"
      },
      "geometry": {
        "type": "Point",
        "coordinates": [
          -152.18125507997837,
          -51.32948314403597
        ]
      }
    },
    {
      "type": "Feature",
      "properties": {
        "norad_id": 30671,
        "name": "FENGYUN 1C DEB",
        "group": "fengyun-1c-debris",
        "lat": -20.276225640900844,
        "lon": 62.801738893507896,
        "alt_km": 836.6451916873202,
        "timestamp": "2025-12-20T14:38:02.247748+00:00",
        "meta_object_name": "FENGYUN 1C DEB",
        "meta_object_id": "1999-025AQD",
        "meta_epoch": "2025-12-20T02:57:59.230080",
        "meta_mean_motion": 13.95484035,
        "meta_eccentricity": 0.01258154,
        "meta_inclination": 99.2519,
        "meta_ra_of_asc_node": 58.8616,
        "meta_arg_of_pericenter": 13.0867,
        "meta_mean_anomaly": 46.2821,
        "meta_ephemeris_type": 0,
        "meta_classification_type": "U",
        "meta_norad_cat_id": 30671,
        "meta_element_set_no": 999,
        "meta_rev_at_epoch": 95298,
        "meta_bstar": 0.0010923058,
        "meta_mean_motion_dot": 1.539e-05,
        "meta_mean_motion_ddot": 0,
        "tle_line1": "1 30671U 99025AQD 25354.12360220  .00001539  00000+0  10923-2 0  9991",
        "tle_line2": "2 30671  99.2519  58.8616 0125815  13.0867  46.2821 13.95484035952983"
      },
      "geometry": {
        "type": "Point",
        "coordinates": [
          62.801738893507896,
          -20.276225640900844
        ]
      }
    },
    {
      "type": "Feature",
      "properties": {
        "norad_id": 30673,
        "name": "FENGYUN 1C DEB",
        "group": "fengyun-1c-debris",
        "lat": 23.64782386016077,
        "lon": 39.67491062964894,
        "alt_km": 885.6663308256557,
        "timestamp": "2025-12-20T14:38:02.247758+00:00",
        "meta_object_name": "FENGYUN 1C DEB",
        "meta_object_id": "1999-025AQF",
        "meta_epoch": "2025-12-20T02:48:33.982272",
        "meta_mean_motion": 14.03457242,
        "meta_eccentricity": 0.00528004,
        "meta_inclination": 98.9185,
        "meta_ra_of_asc_node": 43.1346,
        "meta_arg_of_pericenter": 122.3511,
        "meta_mean_anomaly": 294.3992,
        "meta_ephemeris_type": 0,
        "meta_classification_type": "U",
        "meta_norad_cat_id": 30673,
        "meta_element_set_no": 999,
        "meta_rev_at_epoch": 96635,
        "meta_bstar": -3.922714e-05,
        "meta_mean_motion_dot": -1.05e-06,
        "meta_mean_motion_ddot": 0,
        "tle_line1": "1 30673U 99025AQF 25354.11705998 -.00000105  00000+0 -39227-4 0  9997",
        "tle_line2": "2 30673  98.9185  43.1346 0052800 122.3511 294.3992 14.03457242966351"
      },
      "geometry": {
        "type": "Point",
        "coordinates": [
          39.67491062964894,
          23.64782386016077
        ]
      }
    }
  ]
}